{"type": "FeatureCollection", "features": [ {"type": "Feature", "properties": {"norad_id": 41335, "name": "SENTINEL-3A", "group": "resource", "lat": 2.6604199210526205, "lon": -130.92223771015225, "alt_km": 805.1436660364934, "timestamp": "2025-12-09T14:52:25.823232+00:00", "meta": {"OBJECT_NAME": "SENTINEL-3A", "OBJECT_ID": "2016-011A", "EPOCH": "2025-12-09T07:18:49.097952", "MEAN_MOTION": 14.26744777, "ECCENTRICITY": 9.544e-05, "INCLINATION": 98.6211, "RA_OF_ASC_NODE": 48.3636, "ARG_OF_PERICENTER": 93.188, "MEAN_ANOMALY": 266.9409, "EPHEMERIS_TYPE": 0, "CLASSIFICATION_TYPE": "U", "NORAD_CAT_ID": 41335, "ELEMENT_SET_NO": 999, "REV_AT_EPOCH": 51098, "BSTAR": 0.00013555735, "MEAN_MOTION_DOT": 2.85e-06, "MEAN_MOTION_DDOT": 0}, "tle": {"line1": "1 41335U 16011A   25343.30473493  .00000285  00000+0  13556-3 0  9992", "line2": "2 41335  98.6211  48.3636 0000954  93.1880 266.9409 14.26744777510980"}}, "geometry": {"type": "Point", "coordinates": [-130.92223771015225, 2.6604199210526205]}}, {"type": "Feature", "properties": {"norad_id": 41556, "name": "ZIYUAN 3-2 (ZY 3-2)", "group": "resource", "lat": -52.68368685908518, "lon": 67.66092093798797, "alt_km": 502.53858618124013, "timestamp": "2025-12-09T14:52:25.823242+00:00", "meta": {"OBJECT_NAME": "ZIYUAN 3-2 (ZY 3-2)", "OBJECT_ID": "2016-033A", "EPOCH": "2025-12-09T07:12:54.972864", "MEAN_MOTION": 15.21423808, "ECCENTRICITY": 0.00124227, "INCLINATION": 97.4042, "RA_OF_ASC_NODE": 57.5241, "ARG_OF_PERICENTER": 262.4981, "MEAN_ANOMALY": 97.4844, "EPHEMERIS_TYPE": 0, "CLASSIFICATION_TYPE": "U", "NORAD_CAT_ID": 41556, "ELEMENT_SET_NO": 999, "REV_AT_EPOCH": 52911, "BSTAR": 0.0004605571, "MEAN_MOTION_DOT": 0.00010297, "MEAN_MOTION_DDOT": 0}, "tle": {"line1": "1 41556U 16033A   25343.30063626  .00010297  00000+0  46056-3 0  9999", "line2": "2 41556  97.4042  57.5241 0012422 262.4981  97.4844 15.21423808529114"}}, "geometry": {"type": "Point", "coordinates": [67.66092093798797, -52.68368685908518]}}, {"type": "Feature", "properties": {"norad_id": 41599, "name": "CARTOSAT-2C", "group": "resource", "lat": -80.93615362124116, "lon": 96.312145087881, "alt_km": 522.4866476561601, "timestamp": "2025-12-09T14:52:25.823270+00:00", "meta": {"OBJECT_NAME": "CARTOSAT-2C", "OBJECT_ID": "2016-040A", "EPOCH": "2025-12-09T07:20:37.040064", "MEAN_MOTION": 15.19243125, "ECCENTRICITY": 0.00108993, "INCLINATION": 97.4766, "RA_OF_ASC_NODE": 40.5914, "ARG_OF_PERICENTER": 75.2819, "MEAN_ANOMALY": 284.9623, "EPHEMERIS_TYPE": 0, "CLASSIFICATION_TYPE": "U", "NORAD_CAT_ID": 41599, "ELEMENT_SET_NO": 999, "REV_AT_EPOCH": 52488, "BSTAR": 0.00036822391, "MEAN_MOTION_DOT": 7.705e-05, "MEAN_MOTION_DDOT": 0}, "tle": {"line1": "1 41599U 16040A   25343.30598426  .00007705  00000+0  36822-3 0  9995", "line2": "2 41599  97.4766  40.5914 0010899  75.2819 284.9623 15.19243125524885"}}, "geometry": {"type": "Point", "coordinates": [96.312145087881, -80.93615362124116]}}, {"type": "Feature", "properties": {"norad_id": 41601, "name": "SKYSAT-C1", "group": "resource", "lat": -1.7551076443034432, "lon": -159.40601501743808, "alt_km": 473.4691505777164, "timestamp": "2025-12-09T14:52:25.823285+00:00", "meta": {"OBJECT_NAME": "SKYSAT-C1", "OBJECT_ID": "2016-040C", "EPOCH": "2025-12-09T01:32:49.175520", "MEAN_MOTION": 15.32485031, "ECCENTRICITY": 0.00027814, "INCLINATION": 96.9825, "RA_OF_ASC_NODE": 20.2852, "ARG_OF_PERICENTER": 26.1748, "MEAN_ANOMALY": 333.9635, "EPHEMERIS_TYPE": 0, "CLASSIFICATION_TYPE": "U", "NORAD_CAT_ID": 41601, "ELEMENT_SET_NO": 999, "REV_AT_EPOCH": 52871, "BSTAR": 0.00036453268, "MEAN_MOTION_DOT": 0.00011368, "MEAN_MOTION_DDOT": 0}, "tle": {"line1": "1 41601U 16040C   25343.06445805  .00011368  00000+0  36453-3 0  9994", "line2": "2 41601  96.9825  20.2852 0002781  26.1748 333.9635 15.32485031528715"}}, "geometry": {"type": "Point", "coordinates": [-159.40601501743808, -1.7551076443034432]}}, {"type": "Feature", "properties": {"norad_id": 41603, "name": "LAPAN-A3", "group": "resource", "lat": -23.24199364432517, "lon": -15.623353834784535, "alt_km": 470.05521874999795, "timestamp": "2025-12-09T14:52:25.823296+00:00", "meta": {"OBJECT_NAME": "LAPAN-A3", "OBJECT_ID": "2016-040E", "EPOCH": "2025-12-09T07:08:06.929088", "MEAN_MOTION": 15.31509295, "ECCENTRICITY": 0.00100687, "INCLINATION": 97.1431, "RA_OF_ASC_NODE": 340.9785, "ARG_OF_PERICENTER": 347.0982, "MEAN_ANOMALY": 13.0001, "EPHEMERIS_TYPE": 0, "CLASSIFICATION_TYPE": "U", "NORAD_CAT_ID": 41603, "ELEMENT_SET_NO": 999, "REV_AT_EPOCH": 52573, "BSTAR": 0.00019969663, "MEAN_MOTION_DOT": 6.011e-05, "MEAN_MOTION_DDOT": 0}, "tle": {"line1": "1 41603U 16040E   25343.29730242  .00006011  00000+0  19970-3 0  9997", "line2": "2 41603  97.1431 340.9785 0010068 347.0982  13.0001 15.31509295525732"}}, "geometry": {"type": "Point", "coordinates": [-15.623353834784535, -23.24199364432517]}}, {"type": "Feature", "properties": {"norad_id": 41604, "name": "BIROS", "group": "resource", "lat": -54.471553774976286, "lon": -175.07938024996804, "alt_km": 313.7271607705625, "timestamp": "2025-12-09T14:52:25.823306+00:00", "meta": {"OBJECT_NAME": "BIROS", "OBJECT_ID": "2016-040F", "EPOCH": "2025-12-09T01:47:24.559584", "MEAN_MOTION": 15.88119261, "ECCENTRICITY": 0.00032029, "INCLINATION": 97.0691, "RA_OF_ASC_NODE": 14.3635, "ARG_OF_PERICENTER": 156.004, "MEAN_ANOMALY": 204.1383, "EPHEMERIS_TYPE": 0, "CLASSIFICATION_TYPE": "U", "NORAD_CAT_ID": 41604, "ELEMENT_SET_NO": 999, "REV_AT_EPOCH": 52814, "BSTAR": 0.00066699357, "MEAN_MOTION_DOT": 0.00184271, "MEAN_MOTION_DDOT": 0}, "tle": {"line1": "1 41604U 16040F   25343.07458981  .00184271  00000+0  66699-3 0  9996", "line2": "2 41604  97.0691  14.3635 0003202 156.0040 204.1383 15.88119261528147"}}, "geometry": {"type": "Point", "coordinates": [-175.07938024996804, -54.471553774976286]}}, {"type": "Feature", "properties": {"norad_id": 41727, "name": "GAOFEN-3", "group": "resource", "lat": 34.90279985873813, "lon": -16.666553893748784, "alt_km": 747.9068373711061, "timestamp": "2025-12-09T14:52:25.823317+00:00", "meta": {"OBJECT_NAME": "GAOFEN-3", "OBJECT_ID": "2016-049A", "EPOCH": "2025-12-09T08:03:00.911808", "MEAN_MOTION": 14.42212994, "ECCENTRICITY": 0.0001514, "INCLINATION": 98.4036, "RA_OF_ASC_NODE": 348.9733, "ARG_OF_PERICENTER": 64.3096, "MEAN_ANOMALY": 295.825, "EPHEMERIS_TYPE": 0, "CLASSIFICATION_TYPE": "U", "NORAD_CAT_ID": 41727, "ELEMENT_SET_NO": 999, "REV_AT_EPOCH": 49128, "BSTAR": 0.00010928293, "MEAN_MOTION_DOT": 3.17e-06, "MEAN_MOTION_DDOT": 0}, "tle": {"line1": "1 41727U 16049A   25343.33542722  .00000317  00000+0  10928-3 0  9999", "line2": "2 41727  98.4036 348.9733 0001514  64.3096 295.8250 14.42212994491282"}}, "geometry": {"type": "Point", "coordinates": [-16.666553893748784, 34.90279985873813]}}, {"type": "Feature", "properties": {"norad_id": 41771, "name": "SKYSAT-C4", "group": "resource", "lat": 8.620729031434635, "lon": 7.901306915953292, "alt_km": 442.2547550545487, "timestamp": "2025-12-09T14:52:25.823328+00:00", "meta": {"OBJECT_NAME": "SKYSAT-C4", "OBJECT_ID": "2016-058B", "EPOCH": "2025-12-09T00:49:12.473760", "MEAN_MOTION": 15.42085038, "ECCENTRICITY": 0.00011565, "INCLINATION": 96.9374, "RA_OF_ASC_NODE": 8.402, "ARG_OF_PERICENTER": 132.7744, "MEAN_ANOMALY": 227.3602, "EPHEMERIS_TYPE": 0, "CLASSIFICATION_TYPE": "U", "NORAD_CAT_ID": 41771, "ELEMENT_SET_NO": 999, "REV_AT_EPOCH": 51610, "BSTAR": 0.00040944192, "MEAN_MOTION_DOT": 0.00017439, "MEAN_MOTION_DDOT": 0}, "tle": {"line1": "1 41771U 16058B   25343.03417215  .00017439  00000+0  40944-3 0  9997", "line2": "2 41771  96.9374   8.4020 0001156 132.7744 227.3602 15.42085038516106"}}, "geometry": {"type": "Point", "coordinates": [7.901306915953292, 8.620729031434635]}}, {"type": "Feature", "properties": {"norad_id": 41772, "name": "SKYSAT-C5", "group": "resource", "lat": 1.1556445011027394, "lon": 27.351490281309918, "alt_km": 464.2743031821701, "timestamp": "2025-12-09T14:52:25.823342+00:00", "meta": {"OBJECT_NAME": "SKYSAT-C5", "OBJECT_ID": "2016-058C", "EPOCH": "2025-12-09T02:21:16.658208", "MEAN_MOTION": 15.35258883, "ECCENTRICITY": 0.00022673, "INCLINATION": 97.0758, "RA_OF_ASC_NODE": 26.9942, "ARG_OF_PERICENTER": 143.2849, "MEAN_ANOMALY": 216.8551, "EPHEMERIS_TYPE": 0, "CLASSIFICATION_TYPE": "U", "NORAD_CAT_ID": 41772, "ELEMENT_SET_NO": 999, "REV_AT_EPOCH": 51460, "BSTAR": 0.00035120172, "MEAN_MOTION_DOT": 0.00011953, "MEAN_MOTION_DDOT": 0}, "tle": {"line1": "1 41772U 16058C   25343.09810947  .00011953  00000+0  35120-3 0  9998", "line2": "2 41772  97.0758  26.9942 0002267 143.2849 216.8551 15.35258883514601"}}, "geometry": {"type": "Point", "coordinates": [27.351490281309918, 1.1556445011027394]}}, {"type": "Feature", "properties": {"norad_id": 41773, "name": "SKYSAT-C2", "group": "resource", "lat": -10.897270788441299, "lon": 9.64117037985745, "alt_km": 457.03335734091434, "timestamp": "2025-12-09T14:52:25.823352+00:00", "meta": {"OBJECT_NAME": "SKYSAT-C2", "OBJECT_ID": "2016-058D", "EPOCH": "2025-12-09T00:51:36.970848", "MEAN_MOTION": 15.37139367, "ECCENTRICITY": 0.00046119, "INCLINATION": 97.0362, "RA_OF_ASC_NODE": 7.7195, "ARG_OF_PERICENTER": 43.8765, "MEAN_ANOMALY": 316.2846, "EPHEMERIS_TYPE": 0, "CLASSIFICATION_TYPE": "U", "NORAD_CAT_ID": 41773, "ELEMENT_SET_NO": 999, "REV_AT_EPOCH": 51579, "BSTAR": 0.00037735434, "MEAN_MOTION_DOT": 0.00013655, "MEAN_MOTION_DDOT": 0}, "tle": {"line1": "1 41773U 16058D   25343.03584457  .00013655  00000+0  37735-3 0  9992", "line2": "2 41773  97.0362   7.7195 0004611  43.8765 316.2846 15.37139367515797"}}, "geometry": {"type": "Point", "coordinates": [9.64117037985745, -10.897270788441299]}}]}